{
  "type": "FeatureCollection",
  "features": [
    {
      "type": "Feature",
      "properties": {
        "norad_id": 66835,
        "name": "STARLINK-35890",
        "group": "last-30-days",
        "lat": -10.607124463671562,
        "lon": 156.02271084685594,
        "alt_km": 412.26866366791273,
        "timestamp": "2025-12-26T18:39:30.997905+00:00",
        "meta_object_name": "STARLINK-35890",
        "meta_object_id": "2025-280Q",
        "meta_epoch": "2025-12-26T14:04:05.927808",
        "meta_mean_motion": 15.5256076,
        "meta_eccentricity": 0.00033377,
        "meta_inclination": 70.0006,
        "meta_ra_of_asc_node": 160.4575,
        "meta_arg_of_pericenter": 274.4763,
        "meta_mean_anomaly": 85.6043,
        "meta_ephemeris_type": 0,
        "meta_classification_type": "U",
        "meta_norad_cat_id": 66835,
        "meta_element_set_no": 999,
        "meta_rev_at_epoch": 508,
        "meta_bstar": 0.0019157985,
        "meta_mean_motion_dot": 0.00119664,
        "meta_mean_motion_ddot": 0,
        "tle_line1": "1 66835U 25280Q   25360.58617972  .00119664  00000+0  19158-2 0  9998",
        "tle_line2": "2 66835  70.0006 160.4575 0003337 274.4763  85.6043 15.52560760  5086"
      },
      "geometry": {
        "type": "Point",
        "coordinates": [
          156.02271084685594,
          -10.607124463671562
        ]
      }
    },
    {
      "type": "Feature",
      "properties": {
        "norad_id": 66836,
        "name": "STARLINK-35838",
        "group": "last-30-days",
        "lat": -8.810921537791634,
        "lon": 156.69525283107066,
        "alt_km": 412.03313689715924,
        "timestamp": "2025-12-26T18:39:30.997916+00:00",
        "meta_object_name": "STARLINK-35838",
        "meta_object_id": "2025-280R",
        "meta_epoch": "2025-12-26T14:03:36.273600",
        "meta_mean_motion": 15.52559203,
        "meta_eccentricity": 0.00036423,
        "meta_inclination": 70.0008,
        "meta_ra_of_asc_node": 160.4562,
        "meta_arg_of_pericenter": 276.3092,
        "meta_mean_anomaly": 83.768,
        "meta_ephemeris_type": 0,
        "meta_classification_type": "U",
        "meta_norad_cat_id": 66836,
        "meta_element_set_no": 999,
        "meta_rev_at_epoch": 508,
        "meta_bstar": 0.0017926321,
        "meta_mean_motion_dot": 0.00111847,
        "meta_mean_motion_ddot": 0,
        "tle_line1": "1 66836U 25280R   25360.58583650  .00111847  00000+0  17926-2 0  9990",
        "tle_line2": "2 66836  70.0008 160.4562 0003642 276.3092  83.7680 15.52559203  5086"
      },
      "geometry": {
        "type": "Point",
        "coordinates": [
          156.69525283107066,
          -8.810921537791634
        ]
      }
    },
    {
      "type": "Feature",
      "properties": {
        "norad_id": 66837,
        "name": "STARLINK-35729",
        "group": "last-30-days",
        "lat": -6.558244984504207,
        "lon": 157.52869825066654,
        "alt_km": 410.2828497975179,
        "timestamp": "2025-12-26T18:39:30.997929+00:00",
        "meta_object_name": "STARLINK-35729",
        "meta_object_id": "2025-280S",
        "meta_epoch": "2025-12-26T12:30:17.392032",
        "meta_mean_motion": 15.52817833,
        "meta_eccentricity": 0.0003286,
        "meta_inclination": 70.0008,
        "meta_ra_of_asc_node": 160.6309,
        "meta_arg_of_pericenter": 288.0169,
        "meta_mean_anomaly": 72.066,
        "meta_ephemeris_type": 0,
        "meta_classification_type": "U",
        "meta_norad_cat_id": 66837,
        "meta_element_set_no": 999,
        "meta_rev_at_epoch": 507,
        "meta_bstar": 0.0063215841,
        "meta_mean_motion_dot": 0.0041412,
        "meta_mean_motion_ddot": 0,
        "tle_line1": "1 66837U 25280S   25360.52103463  .00414120  00000+0  63216-2 0  9998",
        "tle_line2": "2 66837  70.0008 160.6309 0003286 288.0169  72.0660 15.52817833  5071"
      },
      "geometry": {
        "type": "Point",
        "coordinates": [
          157.52869825066654,
          -6.558244984504207
        ]
      }
    },
    {
      "type": "Feature",
      "properties": {
        "norad_id": 66838,
        "name": "STARLINK-35886",
        "group": "last-30-days",
        "lat": -3.401927781480741,
        "lon": 158.68348619157294,
        "alt_km": 411.8332855543322,
        "timestamp": "2025-12-26T18:39:30.997940+00:00",
        "meta_object_name": "STARLINK-35886",
        "meta_object_id": "2025-280T",
        "meta_epoch": "2025-12-26T14:02:07.108800",
        "meta_mean_motion": 15.52558121,
        "meta_eccentricity": 0.00036101,
        "meta_inclination": 70.0009,
        "meta_ra_of_asc_node": 160.4515,
        "meta_arg_of_pericenter": 272.9255,
        "meta_mean_anomaly": 87.1518,
        "meta_ephemeris_type": 0,
        "meta_classification_type": "U",
        "meta_norad_cat_id": 66838,
        "meta_element_set_no": 999,
        "meta_rev_at_epoch": 508,
        "meta_bstar": 0.0011512964,
        "meta_mean_motion_dot": 0.00071403,
        "meta_mean_motion_ddot": 0,
        "tle_line1": "1 66838U 25280T   25360.58480450  .00071403  00000+0  11513-2 0  9995",
        "tle_line2": "2 66838  70.0009 160.4515 0003610 272.9255  87.1518 15.52558121  5081"
      },
      "geometry": {
        "type": "Point",
        "coordinates": [
          158.68348619157294,
          -3.401927781480741
        ]
      }
    },
    {
      "type": "Feature",
      "properties": {
        "norad_id": 66839,
        "name": "STARLINK-35717",
        "group": "last-30-days",
        "lat": -5.225825081705995,
        "lon": 158.01744344005397,
        "alt_km": 411.73428816406886,
        "timestamp": "2025-12-26T18:39:30.997950+00:00",
        "meta_object_name": "STARLINK-35717",
        "meta_object_id": "2025-280U",
        "meta_epoch": "2025-12-26T14:02:37.112928",
        "meta_mean_motion": 15.5255128,
        "meta_eccentricity": 0.00034828,
        "meta_inclination": 70.0008,
        "meta_ra_of_asc_node": 160.4529,
        "meta_arg_of_pericenter": 278.8065,
        "meta_mean_anomaly": 81.2727,
        "meta_ephemeris_type": 0,
        "meta_classification_type": "U",
        "meta_norad_cat_id": 66839,
        "meta_element_set_no": 999,
        "meta_rev_at_epoch": 508,
        "meta_bstar": 0.00162338,
        "meta_mean_motion_dot": 0.00101103,
        "meta_mean_motion_ddot": 0,
        "tle_line1": "1 66839U 25280U   25360.58515177  .00101103  00000+0  16234-2 0  9997",
        "tle_line2": "2 66839  70.0008 160.4529 0003482 278.8065  81.2727 15.52551280  5083"
      },
      "geometry": {
        "type": "Point",
        "coordinates": [
          158.01744344005397,
          -5.225825081705995
        ]
      }
    },
    {
      "type": "Feature",
      "properties": {
        "norad_id": 66840,
        "name": "STARLINK-35837",
        "group": "last-30-days",
        "lat": -1.3428881895513933,
        "lon": 159.4338524668786,
        "alt_km": 411.295514251231,
        "timestamp": "2025-12-26T18:39:30.997960+00:00",
        "meta_object_name": "STARLINK-35837",
        "meta_object_id": "2025-280V",
        "meta_epoch": "2025-12-25T22:33:49.877568",
        "meta_mean_motion": 15.52554783,
        "meta_eccentricity": 0.00033359,
        "meta_inclination": 70.0008,
        "meta_ra_of_asc_node": 162.2157,
        "meta_arg_of_pericenter": 274.4565,
        "meta_mean_anomaly": 85.6241,
        "meta_ephemeris_type": 0,
        "meta_classification_type": "U",
        "meta_norad_cat_id": 66840,
        "meta_element_set_no": 999,
        "meta_rev_at_epoch": 498,
        "meta_bstar": 0.0015173185,
        "meta_mean_motion_dot": 0.00094417,
        "meta_mean_motion_ddot": 0,
        "tle_line1": "1 66840U 25280V   25359.94016062  .00094417  00000+0  15173-2 0  9996",
        "tle_line2": "2 66840  70.0008 162.2157 0003335 274.4565  85.6241 15.52554783  4984"
      },
      "geometry": {
        "type": "Point",
        "coordinates": [
          159.4338524668786,
          -1.3428881895513933
        ]
      }
    },
    {
      "type": "Feature",
      "properties": {
        "norad_id": 66841,
        "name": "STARLINK-35715",
        "group": "last-30-days",
        "lat": 0.5245171104344571,
        "lon": 160.11189108905387,
        "alt_km": 411.15264122128156,
        "timestamp": "2025-12-26T18:39:30.997969+00:00",
        "meta_object_name": "STARLINK-35715",
        "meta_object_id": "2025-280W",
        "meta_epoch": "2025-12-25T17:54:59.759136",
        "meta_mean_motion": 15.52550254,
        "meta_eccentricity": 0.00033851,
        "meta_inclination": 70.0008,
        "meta_ra_of_asc_node": 162.7437,
        "meta_arg_of_pericenter": 274.3901,
        "meta_mean_anomaly": 85.6899,
        "meta_ephemeris_type": 0,
        "meta_classification_type": "U",
        "meta_norad_cat_id": 66841,
        "meta_element_set_no": 999,
        "meta_rev_at_epoch": 495,
        "meta_bstar": 0.0012511653,
        "meta_mean_motion_dot": 0.00077649,
        "meta_mean_motion_ddot": 0,
        "tle_line1": "1 66841U 25280W   25359.74652499  .00077649  00000+0  12512-2 0  9997",
        "tle_line2": "2 66841  70.0008 162.7437 0003385 274.3901  85.6899 15.52550254  4954"
      },
      "geometry": {
        "type": "Point",
        "coordinates": [
          160.11189108905387,
          0.5245171104344571
        ]
      }
    }
  ]
}